NORAD_CAT_ID,OBJECT_NAME,OBJECT_TYPE,EPOCH,MEAN_MOTION,ECCENTRICITY,INCLINATION,RA_OF_ASC_NODE,ARG_OF_PERICENTER,MEAN_ANOMALY,BSTAR,MEAN_MOTION_DOT,MEAN_MOTION_DDOT,TLE_LINE0,TLE_LINE1,TLE_LINE2,SEMIMAJOR_AXIS,PERIOD,APOGEE,PERIGEE,DECAYED
56487.0,STARLINK-6196,PAYLOAD,2023-11-01 22:00:00,15.48683738,0.0003467,69.9985,113.2063,278.4809,287.1763,-0.017782,-0.00870238,0.0,0 STARLINK-6196,1 56487U 23064AR  23305.91667824 -.00870238  00000-0 -17782-1 0  9997,2 56487  69.9985 113.2063 0003467 278.4809 287.1763 15.48683738  5868,6798.713,92.982,422.935,418.22,0.0
56487.0,STARLINK-6196,PAYLOAD,2023-11-02 14:00:01,15.47426289,0.0003605,69.9989,111.3921,272.7952,47.0497,-0.020262,-0.00955022,0.0,0 STARLINK-6196,1 56487U 23064AR  23306.58334491 -.00955022  00000-0 -20262-1 0  9994,2 56487  69.9989 111.3921 0003605 272.7952  47.0497 15.47426289 27961,6802.395,93.058,426.712,421.808,0.0
56487.0,STARLINK-6196,PAYLOAD,2023-11-02 22:00:01,15.46731144,0.0003627,69.9987,110.4863,279.6219,96.2329,-0.01917,-0.00875826,0.0,0 STARLINK-6196,1 56487U 23064AR  23306.91668981 -.00875826  00000-0 -19170-1 0  9994,2 56487  69.9987 110.4863 0003627 279.6219  96.2329 15.46731144  6022,6804.433,93.1,428.766,423.83,0.0
56487.0,STARLINK-6196,PAYLOAD,2023-11-03 14:00:01,15.45468453,0.0003461,69.9988,108.6777,276.6728,208.6141,-0.021754,-0.00957891,0.0,0 STARLINK-6196,1 56487U 23064AR  23307.58334491 -.00957891  00000-0 -21754-1 0  9998,2 56487  69.9988 108.6777 0003461 276.6728 208.6141 15.45468453 28129,6808.139,93.176,432.36,427.648,0.0
56487.0,STARLINK-6196,PAYLOAD,2023-11-03 22:00:00,15.4477865,0.0003418,69.9986,107.7747,281.2576,257.6244,-0.02064,-0.0089297,0.0,0 STARLINK-6196,1 56487U 23064AR  23307.91667824 -.00892970  00000-0 -20640-1 0  9993,2 56487  69.9986 107.7747 0003418 281.2576 257.6244 15.44778650  6057,6810.166,93.217,434.358,429.703,0.0
56487.0,STARLINK-6196,PAYLOAD,2023-11-04 06:00:02,15.44106601,0.0003339,69.9988,106.8726,275.1341,316.6203,-0.020593,-0.008724,0.0,0 STARLINK-6196,1 56487U 23064AR  23308.25002315 -.00872400  00000-0 -20593-1 0  9992,2 56487  69.9988 106.8726 0003339 275.1341 316.6203 15.44106601 28225,6812.141,93.258,436.281,431.732,0.0
56487.0,STARLINK-6196,PAYLOAD,2023-11-04 14:00:01,15.43507978,0.0003441,69.9988,105.9716,274.1089,9.5804,-0.023062,-0.00950428,0.0,0 STARLINK-6196,1 56487U 23064AR  23308.58334491 -.00950428  00000-0 -23062-1 0  9992,2 56487  69.9988 105.9716 0003441 274.1089   9.5804 15.43507978  6004,6813.903,93.294,438.112,433.423,0.0
56487.0,STARLINK-6196,PAYLOAD,2023-11-04 22:00:00,15.42826283,0.0003534,69.9984,105.0711,278.7853,56.1498,-0.022276,-0.00901281,0.0,0 STARLINK-6196,1 56487U 23064AR  23308.91667824 -.00901281  00000-0 -22276-1 0  9997,2 56487  69.9984 105.0711 0003534 278.7853  56.1498 15.42826283 28326,6815.91,93.335,440.183,435.366,0.0
56487.0,STARLINK-6196,PAYLOAD,2023-11-05 00:00:00,15.42683459,0.0003417,69.9983,104.8461,280.4034,157.213,-0.023449,-0.00940674,0.0,0 STARLINK-6196,1 56487U 23064AR  23309.00001157 -.00940674  00000-0 -23449-1 0  9991,2 56487  69.9983 104.8461 0003417 280.4034 157.2130 15.42683459  6075,6816.33,93.344,440.524,435.866,0.0
56487.0,STARLINK-6196,PAYLOAD,2023-11-05 14:00:01,15.4155219,0.0003454,69.9988,103.273,275.9882,159.0617,-0.024711,-0.00953245,0.0,0 STARLINK-6196,1 56487U 23064AR  23309.58334491 -.00953245  00000-0 -24711-1 0  9995,2 56487  69.9988 103.2730 0003454 275.9882 159.0617 15.41552190 28433,6819.665,93.412,443.885,439.174,0.0
56487.0,STARLINK-6196,PAYLOAD,2023-11-05 22:00:00,15.40864591,0.0003401,69.9984,102.3751,281.3566,202.595,-0.023601,-0.00894682,0.0,0 STARLINK-6196,1 56487U 23064AR  23309.91667824 -.00894682  00000-0 -23601-1 0  9997,2 56487  69.9984 102.3751 0003401 281.3566 202.5950 15.40864591  5994,6821.693,93.454,445.878,441.238,0.0
56487.0,STARLINK-6196,PAYLOAD,2023-11-06 06:00:00,15.40189975,0.0003271,69.9982,101.4782,274.3856,257.6788,-0.023288,-0.00865597,0.0,0 STARLINK-6196,1 56487U 23064AR  23310.25001157 -.00865597  00000-0 -23288-1 0  9991,2 56487  69.9982 101.4782 0003271 274.3856 257.6788 15.40189975 28536,6823.685,93.495,447.782,443.318,0.0
56487.0,STARLINK-6196,PAYLOAD,2023-11-06 14:00:01,15.3958706,0.0003289,69.9985,100.5821,274.411,305.0243,-0.025995,-0.00940492,0.0,0 STARLINK-6196,1 56487U 23064AR  23310.58335648 -.00940492  00000-0 -25995-1 0  9997,2 56487  69.9985 100.5821 0003289 274.4110 305.0243 15.39587060  6047,6825.467,93.532,449.576,445.087,0.0
56487.0,STARLINK-6196,PAYLOAD,2023-11-06 22:00:00,15.38913945,0.0003385,69.9981,99.6869,279.2283,346.6938,-0.025495,-0.00905226,0.0,0 STARLINK-6196,1 56487U 23064AR  23310.91667824 -.00905226  00000-0 -25495-1 0  9999,2 56487  69.9981  99.6869 0003385 279.2283 346.6938 15.38913945 28639,6827.457,93.572,451.633,447.011,0.0
56487.0,STARLINK-6196,PAYLOAD,2023-11-07 14:00:01,15.37634893,0.0003529,69.9982,97.8993,275.32,81.3938,-0.028067,-0.00951567,0.0,0 STARLINK-6196,1 56487U 23064AR  23311.58335648 -.00951567  00000-0 -28067-1 0  9996,2 56487  69.9982  97.8993 0003529 275.3200  81.3938 15.37634893 28740,6831.242,93.65,455.518,450.697,0.0
56487.0,STARLINK-6196,PAYLOAD,2023-11-08 06:00:02,15.36274319,0.0003362,69.998,96.1155,273.7283,170.6118,-0.026305,-0.008607,0.0,0 STARLINK-6196,1 56487U 23064AR  23312.25002315 -.00860700  00000-0 -26305-1 0  9994,2 56487  69.9980  96.1155 0003362 273.7283 170.6118 15.36274319 28843,6835.275,93.733,459.438,454.842,0.0
56487.0,STARLINK-6196,PAYLOAD,2023-11-08 14:00:01,15.35673409,0.0003378,69.9981,95.2249,275.651,211.2397,-0.02962,-0.00943158,0.0,0 STARLINK-6196,1 56487U 23064AR  23312.58334491 -.00943158  00000-0 -29620-1 0  9995,2 56487  69.9981  95.2249 0003378 275.6510 211.2397 15.35673409  5993,6837.058,93.77,461.233,456.613,0.0
56487.0,STARLINK-6196,PAYLOAD,2023-11-08 22:00:00,15.35004927,0.0003317,69.9977,94.335,279.5817,249.1606,-0.029205,-0.00912834,0.0,0 STARLINK-6196,1 56487U 23064AR  23312.91667824 -.00912834  00000-0 -29205-1 0  9997,2 56487  69.9977  94.3350 0003317 279.5817 249.1606 15.35004927 28943,6839.043,93.811,463.176,458.639,0.0
56487.0,STARLINK-6196,PAYLOAD,2023-11-09 14:00:01,15.33715229,0.0003351,69.9983,92.5582,274.5373,335.5512,-0.031406,-0.00939669,0.0,0 STARLINK-6196,1 56487U 23064AR  23313.58334491 -.00939669  00000-0 -31406-1 0  9993,2 56487  69.9983  92.5582 0003351 274.5373 335.5512 15.33715229  5984,6842.876,93.89,467.034,462.448,0.0
56487.0,STARLINK-6196,PAYLOAD,2023-11-09 18:00:00,15.33361933,0.0003392,69.9983,92.1145,280.5241,169.4229,-0.030176,-0.00896521,0.0,0 STARLINK-6196,1 56487U 23064AR  23313.75001157 -.00896521  00000-0 -30176-1 0  9994,2 56487  69.9983  92.1145 0003392 280.5241 169.4229 15.33361933 29075,6843.927,93.911,468.114,463.471,0.0
56487.0,STARLINK-6196,PAYLOAD,2023-11-09 22:00:00,15.33052215,0.0003466,69.9979,91.6709,278.0417,11.5505,-0.031396,-0.00921479,0.0,0 STARLINK-6196,1 56487U 23064AR  23313.91667824 -.00921479  00000-0 -31396-1 0  9997,2 56487  69.9979  91.6709 0003466 278.0417  11.5505 15.33052215  6045,6844.849,93.93,469.087,464.342,0.0
56487.0,STARLINK-6196,PAYLOAD,2023-11-10 14:00:01,15.31761029,0.0003471,69.9986,89.8995,276.6385,89.6067,-0.033608,-0.00944954,0.0,0 STARLINK-6196,1 56487U 23064AR  23314.58334491 -.00944954  00000-0 -33608-1 0  9993,2 56487  69.9986  89.8995 0003471 276.6385  89.6067 15.31761029 29203,6848.695,94.009,472.937,468.183,0.0
56487.0,STARLINK-6196,PAYLOAD,2023-11-10 22:00:00,15.31098517,0.0003465,69.9982,89.015,280.9524,122.4497,-0.033598,-0.00926898,0.0,0 STARLINK-6196,1 56487U 23064AR  23314.91667824 -.00926898  00000-0 -33598-1 0  9994,2 56487  69.9982  89.0150 0003465 280.9524 122.4497 15.31098517  6034,6850.671,94.05,474.909,470.162,0.0
56487.0,STARLINK-6196,PAYLOAD,2023-11-11 14:00:01,15.29802394,0.0003381,69.9988,87.2489,278.1518,197.2112,-0.035694,-0.00956251,0.0,0 STARLINK-6196,1 56487U 23064AR  23315.58334491 -.00956251  00000-0 -35694-1 0  9994,2 56487  69.9988  87.2489 0003381 278.1518 197.2112 15.29802394 29351,6854.54,94.13,478.722,474.087,0.0
56487.0,STARLINK-6196,PAYLOAD,2023-11-11 22:00:01,15.2901435,0.0003488,69.9986,86.367,279.615,230.6432,-0.021297,-0.00558951,0.0,0 STARLINK-6196,1 56487U 23064AR  23315.91668981 -.00558951  00000-0 -21297-1 0  9994,2 56487  69.9986  86.3670 0003488 279.6150 230.6432 15.29014350 29407,6856.894,94.178,481.151,476.368,0.0
56487.0,STARLINK-6196,PAYLOAD,2023-11-12 06:00:00,15.28559906,0.0003533,69.9989,85.4863,273.3935,270.8344,0.0026627,0.0007481,0.0,0 STARLINK-6196,1 56487U 23064AR  23316.25001157  .00074810  00000-0  26627-2 0  9996,2 56487  69.9989  85.4863 0003533 273.3935 270.8344 15.28559906 29450,6858.253,94.206,482.541,477.695,0.0
56487.0,STARLINK-6196,PAYLOAD,2023-11-12 14:00:01,15.28612538,0.0003626,69.9996,84.6052,276.5376,301.4608,-0.00076316,-0.00021364,0.0,0 STARLINK-6196,1 56487U 23064AR  23316.58334491 -.00021364  00000-0 -76316-3 0  9991,2 56487  69.9996  84.6052 0003626 276.5376 301.4608 15.28612538  5983,6858.096,94.203,482.448,477.474,0.0
56487.0,STARLINK-6196,PAYLOAD,2023-11-12 22:00:00,15.28628195,0.0003569,69.9997,83.7249,278.3607,333.4251,-0.002169,-0.00060203,0.0,0 STARLINK-6196,1 56487U 23064AR  23316.91667824 -.00060203  00000-0 -21690-2 0  9996,2 56487  69.9997  83.7249 0003569 278.3607 333.4251 15.28628195 29559,6858.049,94.202,482.362,477.467,0.0
56487.0,STARLINK-6196,PAYLOAD,2023-11-13 14:00:01,15.28603861,0.0003554,70.0005,81.9639,275.8595,43.4922,-0.00022837,-6.492e-05,0.0,0 STARLINK-6196,1 56487U 23064AR  23317.58334491 -.00006492  00000-0 -22837-3 0  9996,2 56487  70.0005  81.9639 0003554 275.8595  43.4922 15.28603861 29654,6858.122,94.204,482.424,477.55,0.0
56487.0,STARLINK-6196,PAYLOAD,2023-11-13 22:00:00,15.28637251,0.0003517,70.0004,81.0833,278.0548,75.0755,-0.0023451,-0.00065056,0.0,0 STARLINK-6196,1 56487U 23064AR  23317.91667824 -.00065056  00000-0 -23451-2 0  9995,2 56487  70.0004  81.0833 0003517 278.0548  75.0755 15.28637251  6034,6858.022,94.202,482.299,477.475,0.0
